CCSDS_OMM_VERS = 2.0
CREATION_DATE  = 
ORIGINATOR     = 

OBJECT_NAME    = STARLINK-36461
OBJECT_ID      = 2026-002M
CENTER_NAME    = EARTH
REF_FRAME      = TEME
TIME_SYSTEM    = UTC
MEAN_ELEMENT_THEORY = SGP/SGP4

EPOCH          = 2026-01-30T06:00:02.000160
MEAN_MOTION    = 15.50521213
ECCENTRICITY   = .00018865
INCLINATION    = 42.9991
RA_OF_ASC_NODE = 183.8335
ARG_OF_PERICENTER = 276.8517
MEAN_ANOMALY   = 60.3149

EPHEMERIS_TYPE = 0
CLASSIFICATION_TYPE = U
NORAD_CAT_ID   = 67316
ELEMENT_SET_NO = 999
REV_AT_EPOCH   = 539
BSTAR          = .12407964E-2
MEAN_MOTION_DOT = .72982E-3
MEAN_MOTION_DDOT = 0

CCSDS_OMM_VERS = 2.0
CREATION_DATE  = 
ORIGINATOR     = 

OBJECT_NAME    = STARLINK-36450
OBJECT_ID      = 2026-002N
CENTER_NAME    = EARTH
REF_FRAME      = TEME
TIME_SYSTEM    = UTC
MEAN_ELEMENT_THEORY = SGP/SGP4

EPOCH          = 2026-01-30T06:00:02.000160
MEAN_MOTION    = 15.50572893
ECCENTRICITY   = .00014971
INCLINATION    = 42.9990
RA_OF_ASC_NODE = 183.8305
ARG_OF_PERICENTER = 270.9709
MEAN_ANOMALY   = 68.1004

EPHEMERIS_TYPE = 0
CLASSIFICATION_TYPE = U
NORAD_CAT_ID   = 67317
ELEMENT_SET_NO = 999
REV_AT_EPOCH   = 539
BSTAR          = -.7200465E-3
MEAN_MOTION_DOT = -.42346E-3
MEAN_MOTION_DDOT = 0

CCSDS_OMM_VERS = 2.0
CREATION_DATE  = 
ORIGINATOR     = 

OBJECT_NAME    = STARLINK-36498
OBJECT_ID      = 2026-002P
CENTER_NAME    = EARTH
REF_FRAME      = TEME
TIME_SYSTEM    = UTC
MEAN_ELEMENT_THEORY = SGP/SGP4

EPOCH          = 2026-01-30T06:00:02.000160
MEAN_MOTION    = 15.50644053
ECCENTRICITY   = .00022249
INCLINATION    = 42.9993
RA_OF_ASC_NODE = 183.8185
ARG_OF_PERICENTER = 274.3475
MEAN_ANOMALY   = 68.5152

EPHEMERIS_TYPE = 0
CLASSIFICATION_TYPE = U
NORAD_CAT_ID   = 67318
ELEMENT_SET_NO = 999
REV_AT_EPOCH   = 529
BSTAR          = -.2321259E-2
MEAN_MOTION_DOT = -.134529E-2
MEAN_MOTION_DDOT = 0

CCSDS_OMM_VERS = 2.0
CREATION_DATE  = 
ORIGINATOR     = 

OBJECT_NAME    = STARLINK-36470
OBJECT_ID      = 2026-002Q
CENTER_NAME    = EARTH
REF_FRAME      = TEME
TIME_SYSTEM    = UTC
MEAN_ELEMENT_THEORY = SGP/SGP4

EPOCH          = 2026-01-30T06:00:02.000160
MEAN_MOTION    = 15.50601219
ECCENTRICITY   = .00017328
INCLINATION    = 42.9991
RA_OF_ASC_NODE = 183.8241
ARG_OF_PERICENTER = 270.3873
MEAN_ANOMALY   = 70.5827

EPHEMERIS_TYPE = 0
CLASSIFICATION_TYPE = U
NORAD_CAT_ID   = 67319
ELEMENT_SET_NO = 999
REV_AT_EPOCH   = 529
BSTAR          = -.12766624E-2
MEAN_MOTION_DOT = -.74589E-3
MEAN_MOTION_DDOT = 0

CCSDS_OMM_VERS = 2.0
CREATION_DATE  = 
ORIGINATOR     = 

OBJECT_NAME    = STARLINK-36500
OBJECT_ID      = 2026-002R
CENTER_NAME    = EARTH
REF_FRAME      = TEME
TIME_SYSTEM    = UTC
MEAN_ELEMENT_THEORY = SGP/SGP4

EPOCH          = 2026-01-30T06:00:02.000160
MEAN_MOTION    = 15.50574340
ECCENTRICITY   = .00014372
INCLINATION    = 42.9990
RA_OF_ASC_NODE = 183.8160
ARG_OF_PERICENTER = 264.0803
MEAN_ANOMALY   = 80.7424

EPHEMERIS_TYPE = 0
CLASSIFICATION_TYPE = U
NORAD_CAT_ID   = 67320
ELEMENT_SET_NO = 999
REV_AT_EPOCH   = 529
BSTAR          = -.69787391E-3
MEAN_MOTION_DOT = -.41061E-3
MEAN_MOTION_DDOT = 0

CCSDS_OMM_VERS = 2.0
CREATION_DATE  = 
ORIGINATOR     = 

OBJECT_NAME    = STARLINK-36462
OBJECT_ID      = 2026-002S
CENTER_NAME    = EARTH
REF_FRAME      = TEME
TIME_SYSTEM    = UTC
MEAN_ELEMENT_THEORY = SGP/SGP4

EPOCH          = 2026-01-30T06:00:02.000160
MEAN_MOTION    = 15.50586154
ECCENTRICITY   = .00015071
INCLINATION    = 42.9991
RA_OF_ASC_NODE = 183.8055
ARG_OF_PERICENTER = 262.3499
MEAN_ANOMALY   = 86.3118

EPHEMERIS_TYPE = 0
CLASSIFICATION_TYPE = U
NORAD_CAT_ID   = 67321
ELEMENT_SET_NO = 999
REV_AT_EPOCH   = 524
BSTAR          = -.12608396E-2
MEAN_MOTION_DOT = -.73636E-3
MEAN_MOTION_DDOT = 0

CCSDS_OMM_VERS = 2.0
CREATION_DATE  = 
ORIGINATOR     = 

OBJECT_NAME    = STARLINK-36434
OBJECT_ID      = 2026-002T
CENTER_NAME    = EARTH
REF_FRAME      = TEME
TIME_SYSTEM    = UTC
MEAN_ELEMENT_THEORY = SGP/SGP4

EPOCH          = 2026-01-30T06:00:02.000160
MEAN_MOTION    = 15.50604750
ECCENTRICITY   = .00015936
INCLINATION    = 42.9990
RA_OF_ASC_NODE = 183.8103
ARG_OF_PERICENTER = 267.7177
MEAN_ANOMALY   = 79.0022

EPHEMERIS_TYPE = 0
CLASSIFICATION_TYPE = U
NORAD_CAT_ID   = 67322
ELEMENT_SET_NO = 999
REV_AT_EPOCH   = 524
BSTAR          = -.13580104E-2
MEAN_MOTION_DOT = -.79281E-3
MEAN_MOTION_DDOT = 0

CCSDS_OMM_VERS = 2.0
CREATION_DATE  = 
ORIGINATOR     = 

OBJECT_NAME    = STARLINK-36497
OBJECT_ID      = 2026-002U
CENTER_NAME    = EARTH
REF_FRAME      = TEME
TIME_SYSTEM    = UTC
MEAN_ELEMENT_THEORY = SGP/SGP4

EPOCH          = 2026-01-30T06:00:02.000160
MEAN_MOTION    = 15.50706410
ECCENTRICITY   = .00023705
INCLINATION    = 42.9989
RA_OF_ASC_NODE = 183.8007
ARG_OF_PERICENTER = 276.8744
MEAN_ANOMALY   = 73.6301

EPHEMERIS_TYPE = 0
CLASSIFICATION_TYPE = U
NORAD_CAT_ID   = 67323
ELEMENT_SET_NO = 999
REV_AT_EPOCH   = 529
BSTAR          = -.39886085E-2
MEAN_MOTION_DOT = -.228701E-2
MEAN_MOTION_DDOT = 0

CCSDS_OMM_VERS = 2.0
CREATION_DATE  = 
ORIGINATOR     = 

OBJECT_NAME    = STARLINK-36471
OBJECT_ID      = 2026-002V
CENTER_NAME    = EARTH
REF_FRAME      = TEME
TIME_SYSTEM    = UTC
MEAN_ELEMENT_THEORY = SGP/SGP4

EPOCH          = 2026-01-30T06:00:02.000160
MEAN_MOTION    = 15.50695427
ECCENTRICITY   = .00023429
INCLINATION    = 42.9990
RA_OF_ASC_NODE = 183.7914
ARG_OF_PERICENTER = 275.8748
MEAN_ANOMALY   = 78.4562

EPHEMERIS_TYPE = 0
CLASSIFICATION_TYPE = U
NORAD_CAT_ID   = 67324
ELEMENT_SET_NO = 999
REV_AT_EPOCH   = 524
BSTAR          = -.35485289E-2
MEAN_MOTION_DOT = -.204057E-2
MEAN_MOTION_DDOT = 0

CCSDS_OMM_VERS = 2.0
CREATION_DATE  = 
ORIGINATOR     = 

OBJECT_NAME    = STARLINK-36473
OBJECT_ID      = 2026-002W
CENTER_NAME    = EARTH
REF_FRAME      = TEME
TIME_SYSTEM    = UTC
MEAN_ELEMENT_THEORY = SGP/SGP4

EPOCH          = 2026-01-30T06:00:02.000160
MEAN_MOTION    = 15.50695336
ECCENTRICITY   = .00023365
INCLINATION    = 42.9990
RA_OF_ASC_NODE = 183.7960
ARG_OF_PERICENTER = 283.4250
MEAN_ANOMALY   = 68.9757

EPHEMERIS_TYPE = 0
CLASSIFICATION_TYPE = U
NORAD_CAT_ID   = 67325
ELEMENT_SET_NO = 999
REV_AT_EPOCH   = 539
BSTAR          = -.33582367E-2
MEAN_MOTION_DOT = -.193392E-2
MEAN_MOTION_DDOT = 0

CCSDS_OMM_VERS = 2.0
CREATION_DATE  = 
ORIGINATOR     = 

OBJECT_NAME    = STARLINK-36430
OBJECT_ID      = 2026-002X
CENTER_NAME    = EARTH
REF_FRAME      = TEME
TIME_SYSTEM    = UTC
MEAN_ELEMENT_THEORY = SGP/SGP4

EPOCH          = 2026-01-30T06:00:02.000160
MEAN_MOTION    = 15.50708212
ECCENTRICITY   = .00024556
INCLINATION    = 42.9990
RA_OF_ASC_NODE = 183.7810
ARG_OF_PERICENTER = 278.9906
MEAN_ANOMALY   = 79.1485

EPHEMERIS_TYPE = 0
CLASSIFICATION_TYPE = U
NORAD_CAT_ID   = 67326
ELEMENT_SET_NO = 999
REV_AT_EPOCH   = 539
BSTAR          = -.36156802E-2
MEAN_MOTION_DOT = -.20791E-2
MEAN_MOTION_DDOT = 0

CCSDS_OMM_VERS = 2.0
CREATION_DATE  = 
ORIGINATOR     = 

OBJECT_NAME    = STARLINK-36501
OBJECT_ID      = 2026-002Y
CENTER_NAME    = EARTH
REF_FRAME      = TEME
TIME_SYSTEM    = UTC
MEAN_ELEMENT_THEORY = SGP/SGP4

EPOCH          = 2026-01-30T06:00:02.000160
MEAN_MOTION    = 15.50706991
ECCENTRICITY   = .00024082
INCLINATION    = 42.9990
RA_OF_ASC_NODE = 183.7866
ARG_OF_PERICENTER = 278.4772
MEAN_ANOMALY   = 77.7610

EPHEMERIS_TYPE = 0
CLASSIFICATION_TYPE = U
NORAD_CAT_ID   = 67327
ELEMENT_SET_NO = 999
REV_AT_EPOCH   = 524
BSTAR          = -.37633674E-2
MEAN_MOTION_DOT = -.216152E-2
MEAN_MOTION_DDOT = 0

