STARLINK-36461          
1 67316U 26002M   26030.25002315  .00072982  00000+0  12408-2 0  9996
2 67316  42.9991 183.8335 0001886 276.8517  60.3149 15.50521213  5394
STARLINK-36450          
1 67317U 26002N   26030.25002315 -.00042346  00000+0 -72005-3 0  9990
2 67317  42.9990 183.8305 0001497 270.9709  68.1004 15.50572893  5393
STARLINK-36498          
1 67318U 26002P   26030.25002315 -.00134529  00000+0 -23213-2 0  9992
2 67318  42.9993 183.8185 0002224 274.3475  68.5152 15.50644053  5295
STARLINK-36470          
1 67319U 26002Q   26030.25002315 -.00074589  00000+0 -12767-2 0  9994
2 67319  42.9991 183.8241 0001732 270.3873  70.5827 15.50601219  5297
STARLINK-36500          
1 67320U 26002R   26030.25002315 -.00041061  00000+0 -69787-3 0  9990
2 67320  42.9990 183.8160 0001437 264.0803  80.7424 15.50574340  5293
STARLINK-36462          
1 67321U 26002S   26030.25002315 -.00073636  00000+0 -12608-2 0  9993
2 67321  42.9991 183.8055 0001507 262.3499  86.3118 15.50586154  5241
STARLINK-36434          
1 67322U 26002T   26030.25002315 -.00079281  00000+0 -13580-2 0  9996
2 67322  42.9990 183.8103 0001593 267.7177  79.0022 15.50604750  5248
STARLINK-36497          
1 67323U 26002U   26030.25002315 -.00228701  00000+0 -39886-2 0  9997
2 67323  42.9989 183.8007 0002370 276.8744  73.6301 15.50706410  5296
STARLINK-36471          
1 67324U 26002V   26030.25002315 -.00204057  00000+0 -35485-2 0  9997
2 67324  42.9990 183.7914 0002342 275.8748  78.4562 15.50695427  5249
STARLINK-36473          
1 67325U 26002W   26030.25002315 -.00193392  00000+0 -33582-2 0  9993
2 67325  42.9990 183.7960 0002336 283.4250  68.9757 15.50695336  5392
STARLINK-36430          
1 67326U 26002X   26030.25002315 -.00207910  00000+0 -36157-2 0  9997
2 67326  42.9990 183.7810 0002455 278.9906  79.1485 15.50708212  5396
STARLINK-36501          
1 67327U 26002Y   26030.25002315 -.00216152  00000+0 -37634-2 0  9997
2 67327  42.9990 183.7866 0002408 278.4772  77.7610 15.50706991  5242
